KUIPER-00027            
1 63740U 25088S   25210.76046114  .00017883  00000+0  47620-3 0  9990
2 63740  51.8727  14.1469 0001679  82.0335 278.0843 15.38258666 14424
KUIPER-00028            
1 63741U 25088T   25210.75149460  .00016855  00000+0  44829-3 0  9994
2 63741  51.8712  14.0838 0001642  63.2988 296.8167 15.38340092 14830
KUIPER-00029            
1 63742U 25088U   25210.67835645  .00016681  00000+0  46108-3 0  9992
2 63742  51.8698  15.0708 0004945  85.7606 274.3945 15.37147059 14344
KUIPER-00030            
1 63743U 25088V   25210.73324170  .00014954  00000+0  87095-3 0  9997
2 63743  51.8865  19.1777 0012611  65.3092 294.9196 15.12142941 14573
KUIPER-00031            
1 63744U 25088W   25210.71076682  .00014315  00000+0  38848-3 0  9991
2 63744  51.8712  14.5501 0004055  80.0316 280.1128 15.37849794 14350
KUIPER-00032            
1 63745U 25088X   25210.91668981 -.00977827  00000+0 -32847-1 0  9992
2 63745  51.8724  13.8317 0003974  63.1829 213.4540 15.32836594  4402
KUIPER-00033            
1 63746U 25088Y   25210.77923606  .00001990  00000+0  29080-3 0  9999
2 63746  51.9016  32.3105 0003305 146.4759 213.6413 14.79814671 14598
KUIPER-00034            
1 63747U 25088Z   25210.75675980 -.00002027  00000+0 -43119-4 0  9991
2 63747  51.8716  14.1195 0001792 101.2907 258.8281 15.37932549 14521
