<?xml version="1.0" encoding="UTF-8"?>
<ndm xmlns:xsi="http://www.w3.org/2001/XMLSchema-instance" xsi:noNamespaceSchemaLocation="https://sanaregistry.org/r/ndmxml_unqualified/ndmxml-2.0.0-master-2.0.xsd">
<omm id="CCSDS_OMM_VERS" version="2.0">
<header><CREATION_DATE/><ORIGINATOR/></header><body><segment><metadata><OBJECT_NAME>KUIPER-00027</OBJECT_NAME><OBJECT_ID>2025-088S</OBJECT_ID><CENTER_NAME>EARTH</CENTER_NAME><REF_FRAME>TEME</REF_FRAME><TIME_SYSTEM>UTC</TIME_SYSTEM><MEAN_ELEMENT_THEORY>SGP4</MEAN_ELEMENT_THEORY></metadata><data><meanElements><EPOCH>2025-07-29T18:15:03.842496</EPOCH><MEAN_MOTION>15.38258666</MEAN_MOTION><ECCENTRICITY>.0001679</ECCENTRICITY><INCLINATION>51.8727</INCLINATION><RA_OF_ASC_NODE>14.1469</RA_OF_ASC_NODE><ARG_OF_PERICENTER>82.0335</ARG_OF_PERICENTER><MEAN_ANOMALY>278.0843</MEAN_ANOMALY></meanElements><tleParameters><EPHEMERIS_TYPE>0</EPHEMERIS_TYPE><CLASSIFICATION_TYPE>U</CLASSIFICATION_TYPE><NORAD_CAT_ID>63740</NORAD_CAT_ID><ELEMENT_SET_NO>999</ELEMENT_SET_NO><REV_AT_EPOCH>1442</REV_AT_EPOCH><BSTAR>.4762E-3</BSTAR><MEAN_MOTION_DOT>.17883E-3</MEAN_MOTION_DOT><MEAN_MOTION_DDOT>0</MEAN_MOTION_DDOT></tleParameters></data></segment></body></omm>
<omm id="CCSDS_OMM_VERS" version="2.0">
<header><CREATION_DATE/><ORIGINATOR/></header><body><segment><metadata><OBJECT_NAME>KUIPER-00028</OBJECT_NAME><OBJECT_ID>2025-088T</OBJECT_ID><CENTER_NAME>EARTH</CENTER_NAME><REF_FRAME>TEME</REF_FRAME><TIME_SYSTEM>UTC</TIME_SYSTEM><MEAN_ELEMENT_THEORY>SGP4</MEAN_ELEMENT_THEORY></metadata><data><meanElements><EPOCH>2025-07-29T18:02:09.133440</EPOCH><MEAN_MOTION>15.38340092</MEAN_MOTION><ECCENTRICITY>.0001642</ECCENTRICITY><INCLINATION>51.8712</INCLINATION><RA_OF_ASC_NODE>14.0838</RA_OF_ASC_NODE><ARG_OF_PERICENTER>63.2988</ARG_OF_PERICENTER><MEAN_ANOMALY>296.8167</MEAN_ANOMALY></meanElements><tleParameters><EPHEMERIS_TYPE>0</EPHEMERIS_TYPE><CLASSIFICATION_TYPE>U</CLASSIFICATION_TYPE><NORAD_CAT_ID>63741</NORAD_CAT_ID><ELEMENT_SET_NO>999</ELEMENT_SET_NO><REV_AT_EPOCH>1483</REV_AT_EPOCH><BSTAR>.44829E-3</BSTAR><MEAN_MOTION_DOT>.16855E-3</MEAN_MOTION_DOT><MEAN_MOTION_DDOT>0</MEAN_MOTION_DDOT></tleParameters></data></segment></body></omm>
<omm id="CCSDS_OMM_VERS" version="2.0">
<header><CREATION_DATE/><ORIGINATOR/></header><body><segment><metadata><OBJECT_NAME>KUIPER-00029</OBJECT_NAME><OBJECT_ID>2025-088U</OBJECT_ID><CENTER_NAME>EARTH</CENTER_NAME><REF_FRAME>TEME</REF_FRAME><TIME_SYSTEM>UTC</TIME_SYSTEM><MEAN_ELEMENT_THEORY>SGP4</MEAN_ELEMENT_THEORY></metadata><data><meanElements><EPOCH>2025-07-29T16:16:49.997280</EPOCH><MEAN_MOTION>15.37147059</MEAN_MOTION><ECCENTRICITY>.0004945</ECCENTRICITY><INCLINATION>51.8698</INCLINATION><RA_OF_ASC_NODE>15.0708</RA_OF_ASC_NODE><ARG_OF_PERICENTER>85.7606</ARG_OF_PERICENTER><MEAN_ANOMALY>274.3945</MEAN_ANOMALY></meanElements><tleParameters><EPHEMERIS_TYPE>0</EPHEMERIS_TYPE><CLASSIFICATION_TYPE>U</CLASSIFICATION_TYPE><NORAD_CAT_ID>63742</NORAD_CAT_ID><ELEMENT_SET_NO>999</ELEMENT_SET_NO><REV_AT_EPOCH>1434</REV_AT_EPOCH><BSTAR>.46108E-3</BSTAR><MEAN_MOTION_DOT>.16681E-3</MEAN_MOTION_DOT><MEAN_MOTION_DDOT>0</MEAN_MOTION_DDOT></tleParameters></data></segment></body></omm>
<omm id="CCSDS_OMM_VERS" version="2.0">
<header><CREATION_DATE/><ORIGINATOR/></header><body><segment><metadata><OBJECT_NAME>KUIPER-00030</OBJECT_NAME><OBJECT_ID>2025-088V</OBJECT_ID><CENTER_NAME>EARTH</CENTER_NAME><REF_FRAME>TEME</REF_FRAME><TIME_SYSTEM>UTC</TIME_SYSTEM><MEAN_ELEMENT_THEORY>SGP4</MEAN_ELEMENT_THEORY></metadata><data><meanElements><EPOCH>2025-07-29T17:35:52.082880</EPOCH><MEAN_MOTION>15.12142941</MEAN_MOTION><ECCENTRICITY>.0012611</ECCENTRICITY><INCLINATION>51.8865</INCLINATION><RA_OF_ASC_NODE>19.1777</RA_OF_ASC_NODE><ARG_OF_PERICENTER>65.3092</ARG_OF_PERICENTER><MEAN_ANOMALY>294.9196</MEAN_ANOMALY></meanElements><tleParameters><EPHEMERIS_TYPE>0</EPHEMERIS_TYPE><CLASSIFICATION_TYPE>U</CLASSIFICATION_TYPE><NORAD_CAT_ID>63743</NORAD_CAT_ID><ELEMENT_SET_NO>999</ELEMENT_SET_NO><REV_AT_EPOCH>1457</REV_AT_EPOCH><BSTAR>.87095E-3</BSTAR><MEAN_MOTION_DOT>.14954E-3</MEAN_MOTION_DOT><MEAN_MOTION_DDOT>0</MEAN_MOTION_DDOT></tleParameters></data></segment></body></omm>
<omm id="CCSDS_OMM_VERS" version="2.0">
<header><CREATION_DATE/><ORIGINATOR/></header><body><segment><metadata><OBJECT_NAME>KUIPER-00031</OBJECT_NAME><OBJECT_ID>2025-088W</OBJECT_ID><CENTER_NAME>EARTH</CENTER_NAME><REF_FRAME>TEME</REF_FRAME><TIME_SYSTEM>UTC</TIME_SYSTEM><MEAN_ELEMENT_THEORY>SGP4</MEAN_ELEMENT_THEORY></metadata><data><meanElements><EPOCH>2025-07-29T17:03:30.253248</EPOCH><MEAN_MOTION>15.37849794</MEAN_MOTION><ECCENTRICITY>.0004055</ECCENTRICITY><INCLINATION>51.8712</INCLINATION><RA_OF_ASC_NODE>14.5501</RA_OF_ASC_NODE><ARG_OF_PERICENTER>80.0316</ARG_OF_PERICENTER><MEAN_ANOMALY>280.1128</MEAN_ANOMALY></meanElements><tleParameters><EPHEMERIS_TYPE>0</EPHEMERIS_TYPE><CLASSIFICATION_TYPE>U</CLASSIFICATION_TYPE><NORAD_CAT_ID>63744</NORAD_CAT_ID><ELEMENT_SET_NO>999</ELEMENT_SET_NO><REV_AT_EPOCH>1435</REV_AT_EPOCH><BSTAR>.38848E-3</BSTAR><MEAN_MOTION_DOT>.14315E-3</MEAN_MOTION_DOT><MEAN_MOTION_DDOT>0</MEAN_MOTION_DDOT></tleParameters></data></segment></body></omm>
<omm id="CCSDS_OMM_VERS" version="2.0">
<header><CREATION_DATE/><ORIGINATOR/></header><body><segment><metadata><OBJECT_NAME>KUIPER-00032</OBJECT_NAME><OBJECT_ID>2025-088X</OBJECT_ID><CENTER_NAME>EARTH</CENTER_NAME><REF_FRAME>TEME</REF_FRAME><TIME_SYSTEM>UTC</TIME_SYSTEM><MEAN_ELEMENT_THEORY>SGP4</MEAN_ELEMENT_THEORY></metadata><data><meanElements><EPOCH>2025-07-29T22:00:01.999584</EPOCH><MEAN_MOTION>15.32836594</MEAN_MOTION><ECCENTRICITY>.0003974</ECCENTRICITY><INCLINATION>51.8724</INCLINATION><RA_OF_ASC_NODE>13.8317</RA_OF_ASC_NODE><ARG_OF_PERICENTER>63.1829</ARG_OF_PERICENTER><MEAN_ANOMALY>213.4540</MEAN_ANOMALY></meanElements><tleParameters><EPHEMERIS_TYPE>0</EPHEMERIS_TYPE><CLASSIFICATION_TYPE>U</CLASSIFICATION_TYPE><NORAD_CAT_ID>63745</NORAD_CAT_ID><ELEMENT_SET_NO>999</ELEMENT_SET_NO><REV_AT_EPOCH>440</REV_AT_EPOCH><BSTAR>-.32847E-1</BSTAR><MEAN_MOTION_DOT>-.977827E-2</MEAN_MOTION_DOT><MEAN_MOTION_DDOT>0</MEAN_MOTION_DDOT></tleParameters></data></segment></body></omm>
<omm id="CCSDS_OMM_VERS" version="2.0">
<header><CREATION_DATE/><ORIGINATOR/></header><body><segment><metadata><OBJECT_NAME>KUIPER-00033</OBJECT_NAME><OBJECT_ID>2025-088Y</OBJECT_ID><CENTER_NAME>EARTH</CENTER_NAME><REF_FRAME>TEME</REF_FRAME><TIME_SYSTEM>UTC</TIME_SYSTEM><MEAN_ELEMENT_THEORY>SGP4</MEAN_ELEMENT_THEORY></metadata><data><meanElements><EPOCH>2025-07-29T18:42:05.995584</EPOCH><MEAN_MOTION>14.79814671</MEAN_MOTION><ECCENTRICITY>.0003305</ECCENTRICITY><INCLINATION>51.9016</INCLINATION><RA_OF_ASC_NODE>32.3105</RA_OF_ASC_NODE><ARG_OF_PERICENTER>146.4759</ARG_OF_PERICENTER><MEAN_ANOMALY>213.6413</MEAN_ANOMALY></meanElements><tleParameters><EPHEMERIS_TYPE>0</EPHEMERIS_TYPE><CLASSIFICATION_TYPE>U</CLASSIFICATION_TYPE><NORAD_CAT_ID>63746</NORAD_CAT_ID><ELEMENT_SET_NO>999</ELEMENT_SET_NO><REV_AT_EPOCH>1459</REV_AT_EPOCH><BSTAR>.2908E-3</BSTAR><MEAN_MOTION_DOT>.199E-4</MEAN_MOTION_DOT><MEAN_MOTION_DDOT>0</MEAN_MOTION_DDOT></tleParameters></data></segment></body></omm>
<omm id="CCSDS_OMM_VERS" version="2.0">
<header><CREATION_DATE/><ORIGINATOR/></header><body><segment><metadata><OBJECT_NAME>KUIPER-00034</OBJECT_NAME><OBJECT_ID>2025-088Z</OBJECT_ID><CENTER_NAME>EARTH</CENTER_NAME><REF_FRAME>TEME</REF_FRAME><TIME_SYSTEM>UTC</TIME_SYSTEM><MEAN_ELEMENT_THEORY>SGP4</MEAN_ELEMENT_THEORY></metadata><data><meanElements><EPOCH>2025-07-29T18:09:44.046720</EPOCH><MEAN_MOTION>15.37932549</MEAN_MOTION><ECCENTRICITY>.0001792</ECCENTRICITY><INCLINATION>51.8716</INCLINATION><RA_OF_ASC_NODE>14.1195</RA_OF_ASC_NODE><ARG_OF_PERICENTER>101.2907</ARG_OF_PERICENTER><MEAN_ANOMALY>258.8281</MEAN_ANOMALY></meanElements><tleParameters><EPHEMERIS_TYPE>0</EPHEMERIS_TYPE><CLASSIFICATION_TYPE>U</CLASSIFICATION_TYPE><NORAD_CAT_ID>63747</NORAD_CAT_ID><ELEMENT_SET_NO>999</ELEMENT_SET_NO><REV_AT_EPOCH>1452</REV_AT_EPOCH><BSTAR>-.43119E-4</BSTAR><MEAN_MOTION_DOT>-.2027E-4</MEAN_MOTION_DOT><MEAN_MOTION_DDOT>0</MEAN_MOTION_DDOT></tleParameters></data></segment></body></omm>

</ndm>
